{
  "type": "FeatureCollection",
  "features": [
    {
      "type": "Feature",
      "properties": {
        "norad_id": 38833,
        "name": "GPS BIIF-3  (PRN 24)",
        "group": "gps-ops",
        "lat": -18.782385719981033,
        "lon": 136.1247762919411,
        "alt_km": 20158.463424749563,
        "timestamp": "2025-12-26T06:43:29.770379+00:00",
        "meta_object_name": "GPS BIIF-3  (PRN 24)",
        "meta_object_id": "2012-053A",
        "meta_epoch": "2025-12-24T07:38:21.199488",
        "meta_mean_motion": 2.00565058,
        "meta_eccentricity": 0.01760755,
        "meta_inclination": 53.5598,
        "meta_ra_of_asc_node": 150.7645,
        "meta_arg_of_pericenter": 64.1634,
        "meta_mean_anomaly": 297.6191,
        "meta_ephemeris_type": 0,
        "meta_classification_type": "U",
        "meta_norad_cat_id": 38833,
        "meta_element_set_no": 999,
        "meta_rev_at_epoch": 9593,
        "meta_bstar": 0,
        "meta_mean_motion_dot": 8.3e-07,
        "meta_mean_motion_ddot": 0,
        "tle_line1": "1 38833U 12053A   25358.31830092  .00000083  00000+0  00000+0 0  9994",
        "tle_line2": "2 38833  53.5598 150.7645 0176075  64.1634 297.6191  2.00565058 95932"
      },
      "geometry": {
        "type": "Point",
        "coordinates": [
          136.1247762919411,
          -18.782385719981033
        ]
      }
    },
    {
      "type": "Feature",
      "properties": {
        "norad_id": 39166,
        "name": "GPS BIIF-4  (PRN 27)",
        "group": "gps-ops",
        "lat": 52.522345043559746,
        "lon": -16.329978064641036,
        "alt_km": 19849.632257303063,
        "timestamp": "2025-12-26T06:43:29.770391+00:00",
        "meta_object_name": "GPS BIIF-4  (PRN 27)",
        "meta_object_id": "2013-023A",
        "meta_epoch": "2025-12-24T04:22:45.402816",
        "meta_mean_motion": 2.00564584,
        "meta_eccentricity": 0.01386043,
        "meta_inclination": 54.6422,
        "meta_ra_of_asc_node": 276.1031,
        "meta_arg_of_pericenter": 48.7593,
        "meta_mean_anomaly": 312.474,
        "meta_ephemeris_type": 0,
        "meta_classification_type": "U",
        "meta_norad_cat_id": 39166,
        "meta_element_set_no": 999,
        "meta_rev_at_epoch": 9237,
        "meta_bstar": 0,
        "meta_mean_motion_dot": -1.6e-07,
        "meta_mean_motion_ddot": 0,
        "tle_line1": "1 39166U 13023A   25358.18246994 -.00000016  00000+0  00000+0 0  9996",
        "tle_line2": "2 39166  54.6422 276.1031 0138604  48.7593 312.4740  2.00564584 92374"
      },
      "geometry": {
        "type": "Point",
        "coordinates": [
          -16.329978064641036,
          52.522345043559746
        ]
      }
    },
    {
      "type": "Feature",
      "properties": {
        "norad_id": 39533,
        "name": "GPS BIIF-5  (PRN 30)",
        "group": "gps-ops",
        "lat": 51.81730350250944,
        "lon": -133.90158881274493,
        "alt_km": 20356.64726148119,
        "timestamp": "2025-12-26T06:43:29.770402+00:00",
        "meta_object_name": "GPS BIIF-5  (PRN 30)",
        "meta_object_id": "2014-008A",
        "meta_epoch": "2025-12-23T16:16:25.020768",
        "meta_mean_motion": 2.00548852,
        "meta_eccentricity": 0.00795532,
        "meta_inclination": 53.5993,
        "meta_ra_of_asc_node": 156.4877,
        "meta_arg_of_pericenter": 225.9161,
        "meta_mean_anomaly": 133.4108,
        "meta_ephemeris_type": 0,
        "meta_classification_type": "U",
        "meta_norad_cat_id": 39533,
        "meta_element_set_no": 999,
        "meta_rev_at_epoch": 8616,
        "meta_bstar": 0,
        "meta_mean_motion_dot": 8.2e-07,
        "meta_mean_motion_ddot": 0,
        "tle_line1": "1 39533U 14008A   25357.67806737  .00000082  00000+0  00000+0 0  9990",
        "tle_line2": "2 39533  53.5993 156.4877 0079553 225.9161 133.4108  2.00548852 86167"
      },
      "geometry": {
        "type": "Point",
        "coordinates": [
          -133.90158881274493,
          51.81730350250944
        ]
      }
    },
    {
      "type": "Feature",
      "properties": {
        "norad_id": 39741,
        "name": "GPS BIIF-6  (PRN 06)",
        "group": "gps-ops",
        "lat": -42.14909055366447,
        "lon": -165.07119597982438,
        "alt_km": 20179.385709938848,
        "timestamp": "2025-12-26T06:43:29.770414+00:00",
        "meta_object_name": "GPS BIIF-6  (PRN 06)",
        "meta_object_id": "2014-026A",
        "meta_epoch": "2025-12-24T23:00:25.010784",
        "meta_mean_motion": 2.00560429,
        "meta_eccentricity": 0.00394828,
        "meta_inclination": 56.5788,
        "meta_ra_of_asc_node": 338.3014,
        "meta_arg_of_pericenter": 319.3723,
        "meta_mean_anomaly": 40.3399,
        "meta_ephemeris_type": 0,
        "meta_classification_type": "U",
        "meta_norad_cat_id": 39741,
        "meta_element_set_no": 999,
        "meta_rev_at_epoch": 8504,
        "meta_bstar": 0,
        "meta_mean_motion_dot": -5.8e-07,
        "meta_mean_motion_ddot": 0,
        "tle_line1": "1 39741U 14026A   25358.95862281 -.00000058  00000+0  00000+0 0  9993",
        "tle_line2": "2 39741  56.5788 338.3014 0039482 319.3723  40.3399  2.00560429 85044"
      },
      "geometry": {
        "type": "Point",
        "coordinates": [
          -165.07119597982438,
          -42.14909055366447
        ]
      }
    },
    {
      "type": "Feature",
      "properties": {
        "norad_id": 40105,
        "name": "GPS BIIF-7  (PRN 09)",
        "group": "gps-ops",
        "lat": 6.289832856854977,
        "lon": -89.02090107060368,
        "alt_km": 20127.80157657424,
        "timestamp": "2025-12-26T06:43:29.770429+00:00",
        "meta_object_name": "GPS BIIF-7  (PRN 09)",
        "meta_object_id": "2014-045A",
        "meta_epoch": "2025-12-23T13:11:32.096256",
        "meta_mean_motion": 2.00573211,
        "meta_eccentricity": 0.00324114,
        "meta_inclination": 55.2352,
        "meta_ra_of_asc_node": 95.4677,
        "meta_arg_of_pericenter": 120.1575,
        "meta_mean_anomaly": 240.1743,
        "meta_ephemeris_type": 0,
        "meta_classification_type": "U",
        "meta_norad_cat_id": 40105,
        "meta_element_set_no": 999,
        "meta_rev_at_epoch": 8255,
        "meta_bstar": 0,
        "meta_mean_motion_dot": 8e-08,
        "meta_mean_motion_ddot": 0,
        "tle_line1": "1 40105U 14045A   25357.54967704  .00000008  00000+0  00000+0 0  9994",
        "tle_line2": "2 40105  55.2352  95.4677 0032411 120.1575 240.1743  2.00573211 82556"
      },
      "geometry": {
        "type": "Point",
        "coordinates": [
          -89.02090107060368,
          6.289832856854977
        ]
      }
    },
    {
      "type": "Feature",
      "properties": {
        "norad_id": 40294,
        "name": "GPS BIIF-8  (PRN 03)",
        "group": "gps-ops",
        "lat": -55.54326279006471,
        "lon": -70.29986903466785,
        "alt_km": 20346.904420983494,
        "timestamp": "2025-12-26T06:43:29.770446+00:00",
        "meta_object_name": "GPS BIIF-8  (PRN 03)",
        "meta_object_id": "2014-068A",
        "meta_epoch": "2025-12-23T10:16:22.808064",
        "meta_mean_motion": 2.00565491,
        "meta_eccentricity": 0.00608386,
        "meta_inclination": 56.8656,
        "meta_ra_of_asc_node": 37.7327,
        "meta_arg_of_pericenter": 68.9718,
        "meta_mean_anomaly": 291.747,
        "meta_ephemeris_type": 0,
        "meta_classification_type": "U",
        "meta_norad_cat_id": 40294,
        "meta_element_set_no": 999,
        "meta_rev_at_epoch": 8168,
        "meta_bstar": 0,
        "meta_mean_motion_dot": -4.8e-07,
        "meta_mean_motion_ddot": 0,
        "tle_line1": "1 40294U 14068A   25357.42804176 -.00000048  00000+0  00000+0 0  9993",
        "tle_line2": "2 40294  56.8656  37.7327 0060838  68.9718 291.7470  2.00565491 81685"
      },
      "geometry": {
        "type": "Point",
        "coordinates": [
          -70.29986903466785,
          -55.54326279006471
        ]
      }
    },
    {
      "type": "Feature",
      "properties": {
        "norad_id": 40534,
        "name": "GPS BIIF-9  (PRN 26)",
        "group": "gps-ops",
        "lat": 10.056866106168698,
        "lon": 23.709587911594493,
        "alt_km": 20357.44742077404,
        "timestamp": "2025-12-26T06:43:29.770470+00:00",
        "meta_object_name": "GPS BIIF-9  (PRN 26)",
        "meta_object_id": "2015-013A",
        "meta_epoch": "2025-12-25T01:17:18.655296",
        "meta_mean_motion": 2.00561796,
        "meta_eccentricity": 0.0107504,
        "meta_inclination": 53.1961,
        "meta_ra_of_asc_node": 211.3802,
        "meta_arg_of_pericenter": 38.7737,
        "meta_mean_anomaly": 322.0645,
        "meta_ephemeris_type": 0,
        "meta_classification_type": "U",
        "meta_norad_cat_id": 40534,
        "meta_element_set_no": 999,
        "meta_rev_at_epoch": 7833,
        "meta_bstar": 0,
        "meta_mean_motion_dot": 7.9e-07,
        "meta_mean_motion_ddot": 0,
        "tle_line1": "1 40534U 15013A   25359.05368814  .00000079  00000+0  00000+0 0  9999",
        "tle_line2": "2 40534  53.1961 211.3802 0107504  38.7737 322.0645  2.00561796 78331"
      },
      "geometry": {
        "type": "Point",
        "coordinates": [
          23.709587911594493,
          10.056866106168698
        ]
      }
    }
  ]
}